SBSS (USA 216)          
1 37168U 10048A   26068.88624904  .00004946  00000+0  24191-3 0  9993
2 37168  97.7474 312.3885 0082264 184.8326 306.5835 15.15724210837421
STARLINK-33791          
1 63594U 25076AB  26068.39903251  .00036701  00000+0  13369-2 0  9991
2 63594  42.9965 323.5303 0000535  14.5372 345.5495 15.27573239 51788
